[{"OBJECT_NAME":"STARLINK-36943","OBJECT_ID":"2026-040W","EPOCH":"2026-03-07T06:00:00.999648","MEAN_MOTION":16.12225957,"ECCENTRICITY":9.39e-5,"INCLINATION":97.2814,"RA_OF_ASC_NODE":14.1945,"ARG_OF_PERICENTER":112.1852,"MEAN_ANOMALY":334.9817,"EPHEMERIS_TYPE":0,"CLASSIFICATION_TYPE":"U","NORAD_CAT_ID":68035,"ELEMENT_SET_NO":999,"REV_AT_EPOCH":208,"BSTAR":-0.00064983604,"MEAN_MOTION_DOT":-0.00697708,"MEAN_MOTION_DDOT":0.00019573332},{"OBJECT_NAME":"STARLINK-36906","OBJECT_ID":"2026-040X","EPOCH":"2026-03-07T06:00:00.999648","MEAN_MOTION":16.11490775,"ECCENTRICITY":9.952e-5,"INCLINATION":97.2821,"RA_OF_ASC_NODE":14.1888,"ARG_OF_PERICENTER":112.4953,"MEAN_ANOMALY":323.2062,"EPHEMERIS_TYPE":0,"CLASSIFICATION_TYPE":"U","NORAD_CAT_ID":68036,"ELEMENT_SET_NO":999,"REV_AT_EPOCH":203,"BSTAR":-0.00071116576,"MEAN_MOTION_DOT":-0.0072686,"MEAN_MOTION_DDOT":0.00020906546},{"OBJECT_NAME":"STARLINK-36388","OBJECT_ID":"2026-040Y","EPOCH":"2026-03-07T06:00:00.999648","MEAN_MOTION":16.11736717,"ECCENTRICITY":9.295e-5,"INCLINATION":97.282,"RA_OF_ASC_NODE":14.1901,"ARG_OF_PERICENTER":101.6398,"MEAN_ANOMALY":337.0545,"EPHEMERIS_TYPE":0,"CLASSIFICATION_TYPE":"U","NORAD_CAT_ID":68037,"ELEMENT_SET_NO":999,"REV_AT_EPOCH":198,"BSTAR":-0.00069081222,"MEAN_MOTION_DOT":-0.00717735,"MEAN_MOTION_DDOT":0.00020490853},{"OBJECT_NAME":"STARLINK-36895","OBJECT_ID":"2026-040Z","EPOCH":"2026-03-07T06:00:00.999648","MEAN_MOTION":16.11401677,"ECCENTRICITY":9.861e-5,"INCLINATION":97.2819,"RA_OF_ASC_NODE":14.1881,"ARG_OF_PERICENTER":113.9363,"MEAN_ANOMALY":320.3962,"EPHEMERIS_TYPE":0,"CLASSIFICATION_TYPE":"U","NORAD_CAT_ID":68038,"ELEMENT_SET_NO":999,"REV_AT_EPOCH":203,"BSTAR":-0.00073800902,"MEAN_MOTION_DOT":-0.00749695,"MEAN_MOTION_DDOT":0.00022114414},{"OBJECT_NAME":"STARLINK-36373","OBJECT_ID":"2026-040AA","EPOCH":"2026-03-07T06:00:00.999648","MEAN_MOTION":16.11148264,"ECCENTRICITY":0.00012561,"INCLINATION":97.282,"RA_OF_ASC_NODE":14.1879,"ARG_OF_PERICENTER":105.1956,"MEAN_ANOMALY":327.6709,"EPHEMERIS_TYPE":0,"CLASSIFICATION_TYPE":"U","NORAD_CAT_ID":68039,"ELEMENT_SET_NO":999,"REV_AT_EPOCH":198,"BSTAR":-0.00063338705,"MEAN_MOTION_DOT":-0.00633459,"MEAN_MOTION_DDOT":0.0001611743},{"OBJECT_NAME":"STARLINK-36711","OBJECT_ID":"2026-041A","EPOCH":"2026-03-07T06:00:00.999648","MEAN_MOTION":15.98751875,"ECCENTRICITY":6.984e-5,"INCLINATION":53.1599,"RA_OF_ASC_NODE":74.7655,"ARG_OF_PERICENTER":76.8549,"MEAN_ANOMALY":40.7631,"EPHEMERIS_TYPE":0,"CLASSIFICATION_TYPE":"U","NORAD_CAT_ID":68040,"ELEMENT_SET_NO":999,"REV_AT_EPOCH":198,"BSTAR":-0.0030574922,"MEAN_MOTION_DOT":-0.01490745,"MEAN_MOTION_DDOT":0.00067771917},{"OBJECT_NAME":"STARLINK-36825","OBJECT_ID":"2026-041B","EPOCH":"2026-03-07T06:00:00.999648","MEAN_MOTION":15.98998885,"ECCENTRICITY":7.163e-5,"INCLINATION":53.1597,"RA_OF_ASC_NODE":74.7596,"ARG_OF_PERICENTER":72.8117,"MEAN_ANOMALY":47.4459,"EPHEMERIS_TYPE":0,"CLASSIFICATION_TYPE":"U","NORAD_CAT_ID":68041,"ELEMENT_SET_NO":999,"REV_AT_EPOCH":198,"BSTAR":-0.0029953973,"MEAN_MOTION_DOT":-0.01481078,"MEAN_MOTION_DDOT":0.00067145774},{"OBJECT_NAME":"STARLINK-36925","OBJECT_ID":"2026-041C","EPOCH":"2026-03-07T06:00:00.999648","MEAN_MOTION":15.98882573,"ECCENTRICITY":6.696e-5,"INCLINATION":53.1598,"RA_OF_ASC_NODE":74.7625,"ARG_OF_PERICENTER":74.3712,"MEAN_ANOMALY":44.6461,"EPHEMERIS_TYPE":0,"CLASSIFICATION_TYPE":"U","NORAD_CAT_ID":68042,"ELEMENT_SET_NO":999,"REV_AT_EPOCH":198,"BSTAR":-0.003025148,"MEAN_MOTION_DOT":-0.01485935,"MEAN_MOTION_DDOT":0.00067465795},{"OBJECT_NAME":"STARLINK-36902","OBJECT_ID":"2026-041D","EPOCH":"2026-03-07T06:00:00.999648","MEAN_MOTION":15.99098838,"ECCENTRICITY":7.545e-5,"INCLINATION":53.16,"RA_OF_ASC_NODE":74.7573,"ARG_OF_PERICENTER":74.1986,"MEAN_ANOMALY":47.1719,"EPHEMERIS_TYPE":0,"CLASSIFICATION_TYPE":"U","NORAD_CAT_ID":68043,"ELEMENT_SET_NO":999,"REV_AT_EPOCH":198,"BSTAR":-0.0029385449,"MEAN_MOTION_DOT":-0.01461459,"MEAN_MOTION_DDOT":0.0006559558},{"OBJECT_NAME":"STARLINK-36966","OBJECT_ID":"2026-041E","EPOCH":"2026-03-07T06:00:00.999648","MEAN_MOTION":15.99349859,"ECCENTRICITY":7.446e-5,"INCLINATION":53.1598,"RA_OF_ASC_NODE":74.7518,"ARG_OF_PERICENTER":64.5035,"MEAN_ANOMALY":59.5353,"EPHEMERIS_TYPE":0,"CLASSIFICATION_TYPE":"U","NORAD_CAT_ID":68044,"ELEMENT_SET_NO":999,"REV_AT_EPOCH":198,"BSTAR":-0.0028863014,"MEAN_MOTION_DOT":-0.01456094,"MEAN_MOTION_DDOT":0.00065331116},{"OBJECT_NAME":"STARLINK-36864","OBJECT_ID":"2026-041F","EPOCH":"2026-03-07T06:00:00.999648","MEAN_MOTION":15.99244229,"ECCENTRICITY":6.938e-5,"INCLINATION":53.1598,"RA_OF_ASC_NODE":74.7544,"ARG_OF_PERICENTER":64.2964,"MEAN_ANOMALY":58.5938,"EPHEMERIS_TYPE":0,"CLASSIFICATION_TYPE":"U","NORAD_CAT_ID":68045,"ELEMENT_SET_NO":999,"REV_AT_EPOCH":198,"BSTAR":-0.0029252286,"MEAN_MOTION_DOT":-0.01466775,"MEAN_MOTION_DDOT":0.00066136398},{"OBJECT_NAME":"STARLINK-36321","OBJECT_ID":"2026-041G","EPOCH":"2026-03-07T06:00:00.999648","MEAN_MOTION":15.99601622,"ECCENTRICITY":8.237e-5,"INCLINATION":53.1599,"RA_OF_ASC_NODE":74.7463,"ARG_OF_PERICENTER":66.0127,"MEAN_ANOMALY":60.7211,"EPHEMERIS_TYPE":0,"CLASSIFICATION_TYPE":"U","NORAD_CAT_ID":68046,"ELEMENT_SET_NO":999,"REV_AT_EPOCH":198,"BSTAR":-0.0028593796,"MEAN_MOTION_DOT":-0.01463203,"MEAN_MOTION_DDOT":0.00066095734},{"OBJECT_NAME":"STARLINK-36181","OBJECT_ID":"2026-041H","EPOCH":"2026-03-07T06:00:00.999648","MEAN_MOTION":15.99474388,"ECCENTRICITY":8.023e-5,"INCLINATION":53.16,"RA_OF_ASC_NODE":74.7492,"ARG_OF_PERICENTER":73.578,"MEAN_ANOMALY":51.7972,"EPHEMERIS_TYPE":0,"CLASSIFICATION_TYPE":"U","NORAD_CAT_ID":68047,"ELEMENT_SET_NO":999,"REV_AT_EPOCH":186,"BSTAR":-0.0028782163,"MEAN_MOTION_DOT":-0.01462238,"MEAN_MOTION_DDOT":0.00065925331},{"OBJECT_NAME":"STARLINK-36318","OBJECT_ID":"2026-041J","EPOCH":"2026-03-07T06:00:00.999648","MEAN_MOTION":15.99717877,"ECCENTRICITY":6.476e-5,"INCLINATION":53.1599,"RA_OF_ASC_NODE":74.7438,"ARG_OF_PERICENTER":77.2842,"MEAN_ANOMALY":50.6632,"EPHEMERIS_TYPE":0,"CLASSIFICATION_TYPE":"U","NORAD_CAT_ID":68048,"ELEMENT_SET_NO":999,"REV_AT_EPOCH":198,"BSTAR":-0.0028329913,"MEAN_MOTION_DOT":-0.01459357,"MEAN_MOTION_DDOT":0.0006586052},{"OBJECT_NAME":"STARLINK-36885","OBJECT_ID":"2026-041K","EPOCH":"2026-03-07T06:00:00.999648","MEAN_MOTION":15.99978483,"ECCENTRICITY":8.171e-5,"INCLINATION":53.1598,"RA_OF_ASC_NODE":74.7378,"ARG_OF_PERICENTER":69.9978,"MEAN_ANOMALY":60.8572,"EPHEMERIS_TYPE":0,"CLASSIFICATION_TYPE":"U","NORAD_CAT_ID":68049,"ELEMENT_SET_NO":999,"REV_AT_EPOCH":198,"BSTAR":-0.0027606115,"MEAN_MOTION_DOT":-0.01443611,"MEAN_MOTION_DDOT":0.00064747599},{"OBJECT_NAME":"STARLINK-36945","OBJECT_ID":"2026-041L","EPOCH":"2026-03-07T06:00:00.999648","MEAN_MOTION":15.99849711,"ECCENTRICITY":6.882e-5,"INCLINATION":53.1598,"RA_OF_ASC_NODE":74.7407,"ARG_OF_PERICENTER":68.1612,"MEAN_ANOMALY":61.2694,"EPHEMERIS_TYPE":0,"CLASSIFICATION_TYPE":"U","NORAD_CAT_ID":68050,"ELEMENT_SET_NO":999,"REV_AT_EPOCH":198,"BSTAR":-0.0027948705,"MEAN_MOTION_DOT":-0.01450704,"MEAN_MOTION_DDOT":0.00065240123}]
